IRIDIUM 63              
1 25286U 98021B   25053.45161947  .00000743  00000+0  24725-3 0  9991
2 25286  86.4006 130.2725 0002016  95.2252 264.9175 14.36389529407378
IRIDIUM 69              
1 25319U 98026A   25053.53727259  .00001065  00000+0  32708-3 0  9994
2 25319  86.4026 143.8603 0003976  68.5762 291.5861 14.40773863406557
IRIDIUM 71              
1 25320U 98026B   25053.49048544  .00000891  00000+0  27128-3 0  9990
2 25320  86.4015 138.5961 0004285 100.7542 259.4140 14.40987428407079
IRIDIUM 73              
1 25344U 98032C   25053.49449449  .00001087  00000+0  26731-3 0  9999
2 25344  86.4370  95.5464 0002654  79.2689 280.8815 14.51446890413922
IRIDIUM 82              
1 25467U 98051A   25053.35521000  .00030709  00000+0  10712-2 0  9999
2 25467  86.3754 165.8609 0097916  11.4811 348.8634 15.24924812406411
